WBAN	COUNTRY	STATE	LOCATION	VECTOR	NAME	LATITUDE	LONGITUDE	ELEVATION	STATUS	COMMISSIONING	CLOSING	OPERATION	PAIRING	NETWORK
03047	US	TX	Monahans	6 ENE	Sandhills State Park	31.62	-102.8	2724	Commissioned	2004-01-11 19:00:00.0		Operational		USCRN
03048	US	NM	Socorro	20 N	Sevilleta National Wildlife Refuge (LTER Site)	34.35	-106.88	4847	Commissioned	2004-01-11 19:00:00.0		Operational		USCRN
03054	US	TX	Muleshoe	19 S	Muleshoe National Wildlife Refuge (Headquarters Site)	33.95	-102.77	3742	Commissioned	2004-04-22 20:00:00.0		Operational		USCRN
03055	US	OK	Goodwell	2 E	OK  Panhandle Research & Extn. Center (Native Grassland Site)	36.59	-101.59	3266	Commissioned	2004-04-22 20:00:00.0		Operational		USCRN
03060	US	CO	Montrose	11 ENE	Black Canyon of the Gunnison National Park (Vernal Mesa)	38.54	-107.69	8402	Commissioned	2004-09-07 20:00:00.0		Operational		USCRN
03061	US	CO	Cortez	8 SE	Mesa Verde National Park (Far View Site)	37.25	-108.5	8034	Commissioned	2006-01-05 19:00:00.0		Operational		USCRN
03062	US	NM	Los Alamos	13 W	Valles Caldera National Preserve (Valle Grande Site)	35.85	-106.52	8716	Commissioned	2005-02-10 19:00:00.0		Operational		USCRN
03063	US	CO	La Junta	17 WSW	USDA Comanche National Grassland	37.86	-103.82	4386	Commissioned	2004-09-07 20:00:00.0		Operational		USCRN
03067	US	KS	Oakley	19 SSW	The Nature Conservancy Kansas (Smoky Valley Ranch)	38.87	-100.96	2870	Commissioned	2006-01-05 19:00:00.0		Operational		USCRN
03072	US	TX	Bronte	11 NNE	Ft. Chadbourne Foundation, (Foundation Entrance Site)	32.04	-100.24	1997	Commissioned	2007-02-22 19:00:00.0		Operational		USCRN
03074	US	NM	Las Cruces	20 N	Jornada USDA ARS Experimental Range (Jornada Headquarters Site)	32.61	-106.74	4327	Commissioned	2007-06-10 20:00:00.0		Operational		USCRN
03075	US	NM	Dulce	1 NW	BIA Branch of Forestry	36.93	-107	6806	Non-comissioned		2011-03-03 19:00:00.0	Abandoned		USRCRN
03076	US	CO	Grand Junction	9 W	NPS, Colorado National Monument	39.1	-108.73	5806	Non-comissioned		2014-05-31 20:00:00.0	Closed		USRCRN
03077	US	AZ	Holbrook	17 ESE	NPS, Petrified Forest National Park (NADP site)	34.82	-109.89	5613	Non-comissioned		2014-05-31 20:00:00.0	Closed		USRCRN
03078	US	CO	Eads	16 ENE	NPS, Sand Creek Massacre National Historic Site	38.54	-102.5	3967	Non-comissioned		2014-05-31 20:00:00.0	Closed		USRCRN
03079	US	CO	Saguache	2 WNW	Saguache Municipal Airport	38.09	-106.17	7823	Non-comissioned		2014-05-31 20:00:00.0	Closed		USRCRN
03080	US	NM	Reserve	1 W	FS, Gila National Forest (Reserve Ranger Station)	33.71	-108.77	5842	Non-comissioned		2014-05-31 20:00:00.0	Closed		USRCRN
03081	US	UT	Tropic	9 SE	Kodachrome Basin State Park	37.51	-111.97	5895	Non-comissioned		2014-05-31 20:00:00.0	Closed		USRCRN
03082	US	NM	Carrizozo	1 W	Carrizozo Municipal Airport	33.64	-105.89	5366	Non-comissioned		2014-05-31 20:00:00.0	Closed		USRCRN
03083	US	CO	Stratton	24 N	Liberty School, Kirk	39.65	-102.62	4212	Non-comissioned		2014-05-31 20:00:00.0	Closed		USRCRN
03084	US	CO	Center A	4 SSW	Colorado State University (San Luis Valley Research Center)	37.7	-106.14	7678	Non-comissioned		2014-05-31 20:00:00.0	Closed		USRCRN
03085	US	AZ	Bowie	23 SSE	NPS, Chiricahua National Monument (NADP site)	32	-109.38	5133	Non-comissioned		2014-05-31 20:00:00.0	Closed		USRCRN
03086	US	CO	Springfield	6 WSW	FS, Comanche National Grassland near Springfield	37.38	-102.71	4557	Non-comissioned		2014-05-31 20:00:00.0	Closed		USRCRN
03087	US	NM	Santa Fe	20 WNW	NPS, Bandelier National Monument	35.82	-106.31	7258	Non-comissioned		2014-05-31 20:00:00.0	Closed		USRCRN
03088	US	CO	Woodland Park	14 WSW	NPS, Florissant Fossil Beds National Monument	38.91	-105.26	8535	Non-comissioned		2014-05-31 20:00:00.0	Closed		USRCRN
03089	US	CO	Rocky Ford	1 ESE	Colorado State University (Arkansas Valley Research Center)	38.03	-103.69	4170	Non-comissioned		2014-05-31 20:00:00.0	Closed		USRCRN
03090	US	NM	Taos	27 NW	FS, Carson National Forest (Tres Piedras Ranger Station)	36.65	-105.97	8151	Non-comissioned		2014-05-31 20:00:00.0	Closed		USRCRN
03091	US	CO	Kim	9 WSW	FS, Comanche National Grassland near Kim	37.21	-103.5	5870	Non-comissioned		2014-05-31 20:00:00.0	Closed		USRCRN
03092	US	NM	Raton	26 ESE	NPS, Capulin Volcano National Monument	36.77	-103.98	7232	Non-comissioned		2014-05-31 20:00:00.0	Closed		USRCRN
03093	US	CO	Genoa	35 N	Woodlin School	39.78	-103.51	4764	Non-comissioned		2014-05-31 20:00:00.0	Closed		USRCRN
03094	US	NM	Clayton	3 ENE	FS, Kiowa and Rita Blanca National Grasslands near Clayton	36.47	-103.12	4885	Non-comissioned		2014-05-31 20:00:00.0	Closed		USRCRN
03095	US	NM	Mills	6 WSW	FS, Kiowa and Rita Blanca National Grasslands near Mills	36.06	-104.35	5866	Non-comissioned		2014-05-31 20:00:00.0	Closed		USRCRN
03096	US	CO	Rifle	23 NW	BLM Roan Plateau	39.76	-108.12	7550	Non-comissioned		2014-05-31 20:00:00.0	Closed		USRCRN
03097	US	NM	Mountainair	2 WSW	FS, Cibola National Forest (Mountainair Ranger Station)	34.51	-106.27	6489	Non-comissioned		2014-05-31 20:00:00.0	Closed		USRCRN
03098	US	CO	Eagle	13 SSE	Sylvan Lake State Park	39.48	-106.73	8605	Non-comissioned		2014-05-31 20:00:00.0	Closed		USRCRN
03099	US	CO	Craig	30 N	BLM near Craig	40.94	-107.6	6518	Non-comissioned		2014-05-31 20:00:00.0	Closed		USRCRN
03728	US	SC	McClellanville	7 NE	SCDNR (Santee Coastal Reserve)	33.15	-79.36	9	Commissioned	2004-01-19 19:00:00.0		Operational		USCRN
03733	US	WV	Elkins	21 ENE	Canaan Valley Resort State Park (Cabins Area)	39.01	-79.47	3390	Commissioned	2004-01-11 19:00:00.0		Operational		USCRN
03739	US	VA	Cape Charles	5 ENE	Anheuser Busch Coastal Res. Ctr. Univ. of  VA (Oyster)	37.29	-75.92	29	Commissioned	2004-04-22 20:00:00.0		Operational		USCRN
03758	US	NC	Durham	11 W	Duke Forest - Duke University	35.97	-79.09	562	Commissioned	2007-06-10 20:00:00.0		Operational		USCRN
03759	US	VA	Charlottesville	2 SSE	Thomas Jefferson Foundation	37.99	-78.46	1177	Commissioned	2007-05-04 20:00:00.0		Operational		USCRN
03761	US	PA	Avondale	2 N	Stroud Water Research Center	39.85	-75.78	400	Commissioned	2006-09-28 20:00:00.0		Operational		USCRN
04125	US	OR	John Day	35 WNW	John Day Fossil Beds Nat'l. Mon.(Sheep Rock Hdqs.)	44.55	-119.64	2245	Commissioned	2004-06-07 20:00:00.0		Operational		USCRN
04126	US	ID	Arco	17 SW	Craters of the Moon NM & Preserve (Headquarters Area)	43.46	-113.55	5920	Commissioned	2004-01-11 19:00:00.0		Operational		USCRN
04127	US	ID	Murphy	10 W	ARS NW  Watershed Research Cntr. (Reynolds Creek Site)	43.2	-116.75	3950	Commissioned	2004-01-11 19:00:00.0		Operational		USCRN
04128	US	OR	Riley	10 WSW	Northern Great Basin Experimental Range (Rainout Site)	43.47	-119.69	4583	Commissioned	2004-01-25 19:00:00.0		Operational		USCRN
04130	US	MT	St. Mary	1 SSW	Glacier National Park (St. Mary Site)	48.74	-113.43	4555	Commissioned	2004-01-11 19:00:00.0		Operational		USCRN
04131	US	WY	Moose	1 NNE	Grand Teton National Park	43.66	-110.71	6466	Commissioned	2004-08-12 20:00:00.0		Operational		USCRN
04136	US	WA	Spokane	17 SSW	US Fish & Wildlife Service, Turnbull NWR (Headquarters Site)	47.41	-117.52	2267	Commissioned	2007-09-27 20:00:00.0		Operational		USCRN
04137	US	MT	Dillon	18 WSW	Bannack State Park, Old Freight Road Site	45.15	-113	5971	Commissioned	2007-09-27 20:00:00.0		Operational		USCRN
04138	US	UT	Brigham City	28 WNW	Golden Spike National Historic Site (Visitor Center Site)	41.61	-112.54	4951	Commissioned	2007-12-18 19:00:00.0		Operational		USCRN
04139	US	NV	Denio	52 WSW	Sheldon National Wildlife Refuge, (Little Sheldon Site)	41.84	-119.63	6500	Commissioned	2008-07-29 20:00:00.0		Operational		USCRN
04140	US	MT	Lewistown	42 WSW	Montana Department  Fish, Wildlife & Parks, Judith River WMA	46.88	-110.28	5070	Commissioned	2008-09-04 20:00:00.0		Operational		USCRN
04141	US	OR	Coos Bay	8 SW	South Slough National Estuarine Research Reserve (Frederickson Marsh Site)	43.27	-124.31	12	Commissioned	2008-10-01 20:00:00.0		Operational		USCRN
04143	US	UT	Provo	22 E	FS, Uinta-Wasatch-Cache National Forest (Hub Guard Station)	40.28	-111.23	7808	Non-comissioned		2014-05-31 20:00:00.0	Closed		USRCRN
04222	US	CA	Redding	12 WNW	Whiskeytown National Recreation Area (RAWS Site)	40.65	-122.6	1418	Commissioned	2004-01-25 19:00:00.0		Operational		USCRN
04223	US	WA	Darrington	21 NNE	North Cascades National Park (Marblemount)	48.54	-121.44	407	Commissioned	2004-01-25 19:00:00.0		Operational		USCRN
04236	US	OR	Corvallis	10 SSW	DOI, William L. Finley NWR (East end of Field 22)	44.41	-123.32	312	Commissioned	2006-11-29 19:00:00.0		Operational		USCRN
04237	US	WA	Quinault	4 NE	Olympic National Park (Bishop Field Site)	47.51	-123.81	286	Commissioned	2006-11-29 19:00:00.0		Operational		USCRN
04990	US	SD	Sioux Falls	14 NNE	EROS Data Center	43.73	-96.62	1594	Commissioned	2004-01-11 19:00:00.0		Operational		USCRN
04994	US	MN	Goodridge	12 NNW	Agassiz National Wildlife Refuge (Maintenance Shop Site)	48.3	-95.87	1150	Commissioned	2004-01-11 19:00:00.0		Operational		USCRN
12987	US	TX	Edinburg	17 NNE	Lower Rio Grande Valley NWR (La Sal Del Rey)	26.52	-98.06	64	Commissioned	2004-04-22 20:00:00.0		Operational		USCRN
13301	US	MO	Chillicothe	22 ENE	University of Missouri (Forage Systems Research Station)	39.86	-93.14	833	Commissioned	2005-10-26 20:00:00.0		Operational		USCRN
21514	US	HI	Mauna Loa	5 NNE	Mauna Loa Obsv., NOAA Earth Systems Res. Lab.,Global Mon. Div.	19.53	-155.57	11179	Experimental			Operational		USCRN
21515	US	HI	Hilo	5 S	University of Hawaii Waiakea  Experiment Station	19.64	-155.08	622	Experimental			Operational		USCRN
22016	US	TX	Panther Junction	2 N	Big Bend National Park	29.34	-103.2	3494	Commissioned	2007-06-10 20:00:00.0		Operational		USCRN
23801	US	AL	Troy	2 W	Troy	31.79	-86	472	Experimental			Operational		Alabama-USRCRN
23802	US	AL	Thomasville	2 S	Thomasville	31.88	-87.73	350	Experimental			Operational		Alabama-USRCRN
23803	US	MS	Holly Springs	4 N	MSU, MAFES, North MS R&E Center, (North MS Branch)	34.82	-89.43	484	Commissioned	2008-04-03 20:00:00.0		Operational		USCRN
23904	US	AR	Batesville	8 WNW	LFST Br. Exp. Stn.,Univ.of AR, Div.of Agriculture(Field #1)	35.82	-91.78	455	Commissioned	2007-02-22 19:00:00.0		Operational		USCRN
23906	US	TX	Port Aransas	32 NNE	Aransas National Wildlife Refuge (Weather Site)	28.3	-96.82	15	Commissioned	2008-04-01 20:00:00.0		Operational		USCRN
23907	US	TX	Austin	33 NW	Balcones National Wildlife Refuge (Flying "X" Ranch)	30.62	-98.08	1361	Commissioned	2008-04-03 20:00:00.0		Operational		USCRN
23908	US	MO	Joplin	24 N	Shawnee Trail Conservation Area	37.42	-94.58	952	Commissioned	2007-08-02 20:00:00.0		Operational		USCRN
23909	US	MO	Salem	10 W	White River Trace Conservation Area (Stand 4, Compartment 7)	37.63	-91.72	1198	Commissioned	2007-08-02 20:00:00.0		Operational		USCRN
25379	US	AK	Sitka	1 NE	USGS  Sitka Magnetic Observatory	57.05	-135.32	78	Commissioned	2013-07-21 20:00:00.0		Operational		USCRN
25380	US	AK	Gustavus	2 NE	The Nature Conservancy, Gustavus Forelands Preserve	58.42	-135.69	20	Commissioned	2013-07-24 20:00:00.0		Operational		USCRN
25381	US	AK	Metlakatla	6 S	NOAA, National Weather Service (Annette Island)	55.04	-131.58	105	Commissioned	2013-07-24 20:00:00.0		Operational		USCRN
25522	US	AK	King Salmon	42 SE	NPS, Katmai National Park (Contact Creek)	58.2	-155.92	661	Commissioned	2013-07-24 20:00:00.0		Operational		USCRN
25630	US	AK	Sand Point	1 ENE	USGS Shumagin Magnetic Observatory	55.34	-160.46	240	Commissioned	2010-09-06 20:00:00.0		Operational		USCRN
25711	US	AK	St. Paul	4 NE	NOAA National Weather Service St Paul	57.15	-170.21	20	Commissioned	2013-07-22 20:00:00.0		Operational		USCRN
26494	US	AK	Fairbanks	11 NE	NOAA / NESDIS (FCDAS)	64.97	-147.51	1140	Commissioned	2013-07-22 20:00:00.0		Operational		USCRN
26562	US	AK	Port Alsworth	1 SW	Lake Clark National Park	60.19	-154.31	321	Commissioned	2010-09-06 20:00:00.0		Operational		USCRN
26563	US	AK	Kenai	29 ENE	Kenai National Wildlife Refuge (Kenai Moose Research Center)	60.72	-150.44	282	Commissioned	2011-09-11 20:00:00.0		Operational		USCRN
26564	US	AK	Ivotuk	1 NNE	Arctic Slope Regional Corporation, Ivotuk Airstrip	68.48	-155.75	1909	Non-comissioned			Operational		USCRN
26565	US	AK	Deadhorse	3 S	AK Department of Natural Resources, Haul Road)	70.16	-148.46	30	Non-comissioned			Operational		USCRN
26655	US	AK	Red Dog Mine	3 SSW	NANA Regional Corp Red Dog Mine	68.02	-162.92	942	Commissioned	2011-09-11 20:00:00.0		Operational		USCRN
27516	US	AK	Barrow	4 ENE	Barrow Obsv., NOAA Earth Systems Res. Lab., Global Mon. Div.	71.32	-156.61	15	Commissioned	2013-07-21 20:00:00.0		Operational		USCRN
37201	RS	SA	Tiksi	4 SSE	Roshydromet Observatory at Tiksi	71.58	128.91	30	Non-comissioned			Operational		USCRN
53002	US	NM	Artesia	2 WNW	Artesia Municipal Airport	32.85	-104.45	3501	Non-comissioned		2014-05-31 20:00:00.0	Closed		USRCRN
53003	US	NM	Grants	2 S	NPS, Northwest New Mexico Interagency (BLM, FS, NPS) Visitor Center	35.11	-107.83	6443	Non-comissioned		2014-05-31 20:00:00.0	Closed		USRCRN
53004	US	UT	Bluff	32 NW	NPS, Natural Bridges National Monument	37.6	-109.98	6428	Non-comissioned		2014-05-31 20:00:00.0	Closed		USRCRN
53005	US	CO	Buena Vista	2 SSE	Central Colorado Regional Airport	38.81	-106.12	7933	Non-comissioned		2014-05-31 20:00:00.0	Closed		USRCRN
53006	US	AZ	Amado	23 W	FWS, Buenos Aires National Wildlife Refuge	31.69	-111.44	3300	Non-comissioned		2014-05-31 20:00:00.0	Closed		USRCRN
53007	US	CO	Colorado Springs	23 NW	FS, Rocky Mountain Research Stations (Manitou Experimental Forest)	39.08	-105.08	7872	Non-comissioned		2014-05-31 20:00:00.0	Closed		USRCRN
53008	US	NM	Clovis	7 N	Ned Houk State Park	34.51	-103.17	4316	Non-comissioned		2014-05-31 20:00:00.0	Closed		USRCRN
53009	US	NM	Ramah	9 SE	NPS, El Morro National Monument	35.04	-108.36	7164	Non-comissioned		2014-05-31 20:00:00.0	Closed		USRCRN
53010	US	UT	Monticello	24 NW	BLM Indian Creek	38.14	-109.61	5025	Non-comissioned		2014-05-31 20:00:00.0	Closed		USRCRN
53011	US	AZ	Tsaile	1 SSW	Dine College	36.29	-109.21	7071	Non-comissioned		2013-06-23 20:00:00.0	Closed		USRCRN
53012	US	UT	Blanding	26 SSW	BLM near Sand Island Recreation Area	37.26	-109.6	4390	Non-comissioned		2014-05-31 20:00:00.0	Closed		USRCRN
53013	US	UT	Cedar City	18 SSE	NPS, Zion National Park (Kolob Canyons)	37.45	-113.22	5096	Non-comissioned		2014-05-31 20:00:00.0	Closed		USRCRN
53014	US	UT	Mexican Hat	10 NW	BLM near Muley Point	37.25	-109.98	6364	Non-comissioned		2014-05-31 20:00:00.0	Closed		USRCRN
53015	US	NM	Hagerman	10 ESE	BLM near Hagerman	33.08	-104.16	3552	Non-comissioned		2014-05-31 20:00:00.0	Closed		USRCRN
53016	US	NM	Vaughn	36 SSE	BLM near Ramon	34.13	-104.93	5034	Non-comissioned		2014-05-31 20:00:00.0	Closed		USRCRN
53017	US	NM	Aztec	43 E	FS, Carson National Forest (Jicarilla Ranger District)	36.74	-107.21	7024	Non-comissioned		2014-05-31 20:00:00.0	Closed		USRCRN
53019	US	AZ	Whiteriver A	1 SW	BIA, Whiteriver, Fort Apache Tribe (Fire Management Facility)	33.82	-109.98	5173	Non-comissioned		2014-05-31 20:00:00.0	Closed		USRCRN
53022	US	NM	Elida	14 SW	BLM near Kenna	33.8	-103.84	4313	Non-comissioned		2014-05-31 20:00:00.0	Closed		USRCRN
53023	US	UT	Spanish Valley	25 SW	NPS, Canyonlands National Park (Island in the Sky) (NADP site)	38.31	-109.85	6275	Non-comissioned		2014-05-31 20:00:00.0	Closed		USRCRN
53024	US	NM	Las Vegas	6 NE	Las Vegas Municipal Airport	35.66	-105.14	6847	Non-comissioned		2014-05-31 20:00:00.0	Closed		USRCRN
53025	US	NM	Hachita	7 ESE	BLM near Hachita	31.88	-108.2	4652	Non-comissioned		2014-05-31 20:00:00.0	Closed		USRCRN
53026	US	NM	Pinon	8 SSE	BLM near Pinon	32.51	-105.33	5456	Non-comissioned		2014-05-31 20:00:00.0	Closed		USRCRN
53131	US	AZ	Tucson	11 W	Sonora Desert Museum	32.23	-111.16	2733	Commissioned	2004-01-11 19:00:00.0		Operational		USCRN
53132	US	AZ	Elgin	5 S	Audubon (Appleton-Whittell Research Ranch)	31.59	-110.5	4811	Commissioned	2004-01-11 19:00:00.0		Operational		USCRN
53136	US	NV	Mercury	3 SSW	Nevada Test Site (Desert Rock Meteorological Lab)	36.62	-116.02	3284	Commissioned	2004-06-07 20:00:00.0		Operational		USCRN
53138	US	NV	Baker	5 W	Great Basin National Park (Gravel Pit Site)	39.01	-114.2	6617	Commissioned	2004-06-28 20:00:00.0		Operational		USCRN
53139	US	CA	Stovepipe Wells	1 SW	Death Valley National Park (Stovepipe Wells Site)	36.6	-117.14	84	Commissioned	2004-06-07 20:00:00.0		Operational		USCRN
53149	US	UT	Torrey	7 E	Capitol Reef National Park, Goosenecks Road Site	38.3	-111.29	6204	Commissioned	2007-12-18 19:00:00.0		Operational		USCRN
53150	US	CA	Yosemite Village	12 W	Yosemite National Park, (Crane Flat Lookout)	37.75	-119.82	6620	Commissioned	2007-12-18 19:00:00.0		Operational		USCRN
53151	US	CA	Fallbrook	5 NE	San Diego State Univ's Santa Margarita Ecological Reserve (Old Mine Road)	33.43	-117.19	1140	Commissioned	2008-06-08 20:00:00.0		Operational		USCRN
53152	US	CA	Santa Barbara	11 W	Univ. of California - Santa Barbara (Coal Oil Point Reserve)	34.41	-119.87	18	Commissioned	2008-09-20 20:00:00.0		Operational		USCRN
53154	US	AZ	Yuma	27 ENE	U.S. Army, Yuma Proving Ground  (Redbluff Pavement Site)	32.83	-114.18	620	Commissioned	2008-09-02 20:00:00.0		Operational		USCRN
53155	US	AZ	Williams	35 NNW	Babbitt Ranches (Meridian Site)	35.75	-112.33	5990	Commissioned	2008-07-29 20:00:00.0		Operational		USCRN
53156	US	AZ	Phoenix	7 S	South Mountain Regional Park	33.34	-112.08	1404	Non-comissioned		2014-05-31 20:00:00.0	Closed		USRCRN
53159	US	AZ	Cameron	25 SSE	NPS, Wupatki National Monument (Woodhouse Mesa)	35.5	-111.34	4807	Non-comissioned		2014-05-31 20:00:00.0	Closed		USRCRN
53160	US	AZ	Camp Verde	3 N	NPS, Montezuma Castle National Monument (Water Tank Butte)	34.61	-111.84	3434	Non-comissioned		2014-05-31 20:00:00.0	Closed		USRCRN
53162	US	AZ	Coolidge	5 W	NPS, Casa Grande Ruins National Monument	32.99	-111.53	1425	Non-comissioned		2014-05-31 20:00:00.0	Closed		USRCRN
53163	US	NM	Socorro	17 WSW	FS, Cibola National Forest (Magdalena Ridge Observatory)	33.97	-107.18	10486	Non-comissioned		2014-05-31 20:00:00.0	Closed		USRCRN
53164	US	AZ	Page	9 WSW	NPS, Glen Canyon National Recreation Area (Lees Ferry)	36.86	-111.6	3254	Non-comissioned		2014-05-31 20:00:00.0	Closed		USRCRN
53165	US	UT	Delta	4 NE	Delta Municipal Airport	39.38	-112.5	4761	Non-comissioned		2014-05-31 20:00:00.0	Closed		USRCRN
53166	US	UT	St. George	15 NE	BLM near White Reef	37.21	-113.37	3417	Non-comissioned		2012-09-26 20:00:00.0	Closed		USRCRN
53167	US	UT	Midway	3 NE	Utah Valley University (Wasatch Campus)	40.54	-111.41	5748	Non-comissioned		2014-05-31 20:00:00.0	Closed		USRCRN
53168	US	AZ	Ajo	29 S	NPS, Organ Pipe Cactus National Monument	31.94	-112.8	1661	Non-comissioned		2014-05-31 20:00:00.0	Closed		USRCRN
53169	US	AZ	Kayenta	16 WSW	NPS, Navajo National Monument	36.68	-110.54	7274	Non-comissioned		2014-05-31 20:00:00.0	Closed		USRCRN
53170	US	AZ	Heber	3 SE	FS, Sitgreaves National Forest (Black Mesa Ranger Station)	34.39	-110.56	6625	Non-comissioned		2014-05-31 20:00:00.0	Closed		USRCRN
53171	US	UT	Milford	42 WNW	FS, Rocky Mountain Research Stations (Desert Range Experimental Station)	38.59	-113.75	5255	Non-comissioned		2014-05-31 20:00:00.0	Closed		USRCRN
53172	US	AZ	Lake Havasu City	19 SE	Buckskin Mountain State Park	34.25	-114.13	416	Non-comissioned		2014-05-31 20:00:00.0	Closed		USRCRN
53173	US	NM	Nageezi	18 SSW	NPS, Chaco Culture National Historical Park	36.03	-107.9	6449	Non-comissioned		2014-05-31 20:00:00.0	Closed		USRCRN
53174	US	UT	Price	3 E	Carbon County Airport	39.6	-110.75	5835	Non-comissioned		2014-05-31 20:00:00.0	Closed		USRCRN
53176	US	AZ	Gila Bend	3 ENE	Gila Bend Municipal Airport	32.96	-112.66	780	Non-comissioned		2014-05-31 20:00:00.0	Closed		USRCRN
53180	US	AZ	Kingman	8 NE	Kingman Airport	35.25	-113.93	3425	Non-comissioned		2014-05-31 20:00:00.0	Closed		USRCRN
53181	US	AZ	Safford	5 NNE	Safford Regional Airport	32.85	-109.63	3176	Non-comissioned		2014-05-31 20:00:00.0	Closed		USRCRN
53182	US	OK	Goodwell	2 SE	Oklahoma Panhandle State Univ., School of Agriculture (Permanent Pasture)	36.56	-101.6	3282	Non-comissioned			Operational		USCRN
53183	US	AZ	Fredonia	7 SSE	BLM near Fredonia	36.85	-112.45	5147	Non-comissioned		2014-05-31 20:00:00.0	Closed		USRCRN
53184	US	AZ	Meadview	7 N	NPS, Lake Mead National Recreation Area (Pearce Ferry Airport)	36.09	-114.04	2938	Non-comissioned		2014-05-31 20:00:00.0	Closed		USRCRN
53185	US	UT	Beaver	15 E	FS, Fishlake National Forest (Big Flat Ranger Station)	38.27	-112.37	10132	Non-comissioned		2014-05-31 20:00:00.0	Closed		USRCRN
53877	US	NC	Asheville	8 SSW	North Carolina  Arboretum (Bierbaum Site)	35.49	-82.61	2151	Commissioned	2000-11-13 19:00:00.0		Operational	53878	USCRN
53878	US	NC	Asheville	13 S	NC Mtn. Horticultural Crops Res. Ctr. (Backlund Site)	35.41	-82.55	2103	Commissioned	2000-11-13 19:00:00.0		Operational	53877	USCRN
53926	US	OK	Stillwater	2 W	Oklahoma State Univ. (Ag.  Research Farm Site)	36.11	-97.09	890	Commissioned	2004-01-11 19:00:00.0		Operational	53927	USCRN
53927	US	OK	Stillwater	5 WNW	Oklahoma State University (Efaw Farm Site)	36.13	-97.1	888	Commissioned	2004-01-11 19:00:00.0		Operational	53926	USCRN
53960	US	LA	Lafayette	13 SE	University of Louisiana at Lafayette (Cade Farm)	30.09	-91.87	35	Commissioned	2004-01-11 19:00:00.0		Operational		USCRN
53961	US	LA	Monroe	26 N	Upper Ouachita National Wildlife Refuge	32.88	-92.11	88	Commissioned	2004-01-11 19:00:00.0		Operational		USCRN
53968	US	TX	Palestine	6 WNW	NASA (National Scientific Balloon Facility)	31.77	-95.72	383	Commissioned	2004-01-11 19:00:00.0		Operational		USCRN
53974	US	KS	Manhattan	6 SSW	Kansas State University (Konza Prairie Biological Station)	39.1	-96.6	1137	Commissioned	2004-01-11 19:00:00.0		Operational		USCRN
54794	US	NH	Durham	2 N	University of New Hampshire (Kingman Farm Site)	43.17	-70.92	119	Commissioned	2004-01-11 19:00:00.0		Operational	54795	USCRN
54795	US	NH	Durham	2 SSW	University of New Hampshire (Thompson Farm Site)	43.1	-70.94	63	Commissioned	2004-01-11 19:00:00.0		Operational	54794	USCRN
54796	US	RI	Kingston	1 NW	University of Rhode Island (Plains Road Site)	41.49	-71.54	115	Commissioned	2004-01-11 19:00:00.0		Operational	54797	USCRN
54797	US	RI	Kingston	1 W	University of Rhode Island (Peckham Farm Site)	41.47	-71.54	106	Commissioned	2004-01-11 19:00:00.0		Operational	54796	USCRN
54808	US	IL	Champaign	9 SW	Univ. of Illinois (Bondville Environ. & Atmos. Resrch. Stn.)	40.05	-88.37	700	Commissioned	2004-01-11 19:00:00.0		Operational		USCRN
54810	US	MI	Chatham	1 SE	Michigan State University (Upper Peninsula Experiment Station)	46.33	-86.92	875	Commissioned	2005-04-06 20:00:00.0		Operational		USCRN
54811	US	IL	Shabbona	5 NNE	Northern Illinois Agronomy Research Center	41.84	-88.85	861	Commissioned	2004-01-11 19:00:00.0		Operational		USCRN
54851	US	OH	Coshocton	8 NNE	North Appalachian Experimental Watershed (CRN site)	40.36	-81.78	1120	Commissioned	2007-01-25 19:00:00.0		Operational		USCRN
54854	US	MI	Gaylord	9 SSW	National Weather Service, Gaylord	44.9	-84.72	1461	Commissioned	2007-12-18 19:00:00.0		Operational		USCRN
54902	US	IA	Des Moines	17 E	Neal Smith NWR (NOAA Station Site)	41.55	-93.28	921	Commissioned	2005-02-10 19:00:00.0		Operational		USCRN
54903	US	WI	Necedah	5 WNW	Necedah National Wildlife Refuge (Rynearson Dam No. 2)	44.06	-90.17	933	Commissioned	2005-03-09 19:00:00.0		Operational		USCRN
54932	US	MN	Sandstone	6 W	Audubon Center of  the North Woods	46.11	-92.99	1130	Commissioned	2007-09-27 20:00:00.0		Operational		USCRN
54933	US	SD	Aberdeen	35 WNW	The Nature Conservancy (Samuel H. Ordway Prairie, Hdq. Site)	45.71	-99.12	1957	Commissioned	2007-09-27 20:00:00.0		Operational		USCRN
54937	US	ND	Jamestown	38 WSW	North Dakota State University, Central Grasslands (Sec. 14 Site)	46.77	-99.47	1920	Commissioned	2008-09-04 20:00:00.0		Operational		USCRN
56401	US	AK	Glennallen	64 N	BLM, Paxson Airport	63.02	-145.5	2669	Commissioned	2014-07-20 20:00:00.0		Operational		USCRN
63826	US	SC	Blackville	3 W	Clemson University (Edisto Research & Edu. Ctr.)	33.35	-81.32	317	Commissioned	2004-01-11 19:00:00.0		Operational		USCRN
63828	US	GA	Newton	8 W	Robert W. Woodruff Foundation (Ichauway-George Site)	31.31	-84.47	176	Commissioned	2004-01-11 19:00:00.0		Operational	63829	USCRN
63829	US	GA	Newton	11 SW	Robert W. Woodruff Foundation (Ichauway-Dubignon Site)	31.19	-84.44	156	Commissioned	2004-01-11 19:00:00.0		Operational	63828	USCRN
63831	US	MS	Newton	5 ENE	Mississippi State University (Coastal Plain Exp. Station)	32.33	-89.07	374	Commissioned	2004-01-11 19:00:00.0		Operational		USCRN
63838	US	KY	Versailles	3 NNW	University of Kentucky (Woodford County Site)	38.09	-84.74	891	Commissioned	2004-01-11 19:00:00.0		Operational		USCRN
63849	US	KY	Bowling Green	21 NNE	Mammoth Cave National Park (Job Corps Site)	37.25	-86.23	790	Commissioned	2004-06-28 20:00:00.0		Operational		USCRN
63850	US	GA	Watkinsville	5 SSE	USDA/ARS Watkinsville (Colham Ferry Site)	33.78	-83.38	741	Commissioned	2004-06-07 20:00:00.0		Operational		USCRN
63855	US	TN	Crossville	7 NW	Univ. of Tennessee (Plateau Research and Education Center)	36.01	-85.13	1913	Commissioned	2005-04-06 20:00:00.0		Operational		USCRN
63856	US	GA	Brunswick	23 S	Cumberland Island National Seashore (Stafford Field)	30.8	-81.45	25	Commissioned	2005-04-26 20:00:00.0		Operational		USCRN
63857	US	AL	Gadsden	19 N	Sand Mountain Research / Extension  (Northwest Pasture)	34.28	-85.96	1152	Commissioned	2005-06-09 20:00:00.0		Operational		USCRN
63858	US	AL	Selma	13 WNW	Auburn University, Black Belt Research and Extension Center	32.45	-87.24	193	Commissioned	2005-07-24 20:00:00.0		Operational		USCRN
63862	US	AL	Valley Head	1 SSW	Valley Head	34.56	-85.61	1020	Experimental			Operational		Alabama-USRCRN
63866	US	AL	Guntersville	2 SW	Guntersville Radio Station	34.33	-86.31	620	Experimental		2013-12-15 19:00:00.0	Closed		Alabama-USRCRN
63867	US	AL	Cullman	3 ENE	North Alabama Horticultural Research Center	34.19	-86.79	800	Experimental			Operational		Alabama-USRCRN
63868	US	AL	Courtland	2 WSW	Lawrence County Airport	34.66	-87.34	575	Experimental			Operational		Alabama-USRCRN
63869	US	AL	Fairhope	3 NE	Auburn University, Gulf Coast Research and Extension Center	30.54	-87.87	95	Commissioned	2006-09-28 20:00:00.0		Operational		USCRN
63891	US	AL	Clanton	2 NE	Chilton County Airport	32.85	-86.61	584	Experimental			Operational		Alabama-USRCRN
63892	US	AL	Gainesville	2 NE	Heflin Lock	32.83	-88.13	107	Experimental			Operational		Alabama-USRCRN
63893	US	AL	Greensboro	2 WNW	Hale County Jail	32.71	-87.62	280	Experimental			Operational		Alabama-USRCRN
63894	US	AL	Muscle Shoals	2 N	Muscle Shoals TVA	34.77	-87.63	530	Experimental			Operational		Alabama-USRCRN
63895	US	AL	Russellville	4 SSE	Russellville	34.45	-87.71	720	Experimental			Operational		Alabama-USRCRN
63896	US	AL	Scottsboro	2 NE	Scottsboro	34.69	-85.99	636	Experimental			Operational		Alabama-USRCRN
63897	US	AL	Selma	6 SSE	Craig Field Airport	32.33	-86.97	157	Experimental			Operational		Alabama-USRCRN
63898	US	IN	Bedford	5 WNW	Feldun-Purdue Agricultural Center, (Pasture 17 Site)	38.88	-86.57	760	Commissioned	2007-12-18 19:00:00.0		Operational		USCRN
63899	US	AL	Brewton	3 NNE	Brewton	31.14	-87.05	170	Experimental			Operational		Alabama-USRCRN
64756	US	NY	Millbrook	3 W	Institute of Ecosystem Studies (Environmental Monitoring Station)	41.78	-73.74	413	Commissioned	2005-03-09 19:00:00.0		Operational		USCRN
64757	CA	ON	Egbert	1 W	Environment Canada CARE site	44.23	-79.78	807	Experimental			Operational		USCRN
64758	US	NY	Ithaca	13 E	Cornell University (Harford Teaching & Research Center)	42.44	-76.24	1228	Commissioned	2005-03-09 19:00:00.0		Operational		USCRN
73801	US	AL	Northport	2 S	Oliver Lock & Dam	33.21	-87.59	150	Experimental			Operational		Alabama-USRCRN
73802	US	AL	Highland Home	2 S	Highland Home	31.91	-86.31	614	Experimental			Operational		Alabama-USRCRN
73803	US	AL	Talladega	10 NNE	Talladega Municipal Airport	33.57	-86.05	525	Experimental			Operational		Alabama-USRCRN
92821	US	FL	Titusville	7 E	NASA Kennedy Space Center, SLF Mid-Field Site	28.61	-80.69	3	Commissioned	2005-06-09 20:00:00.0		Operational		USCRN
92826	US	FL	Everglades City	5 NE	Big Cypress National Preserve (Ochopee Headquarters Vista Site)	25.89	-81.31	4	Commissioned	2007-06-10 20:00:00.0		Operational		USCRN
92827	US	FL	Sebring	23 SSE	Archbold Biological Station	27.15	-81.36	150	Commissioned	2008-04-01 20:00:00.0		Operational		USCRN
93243	US	CA	Merced	23 WSW	Kesterson Reservoir (US Bureau of Reclamation)	37.23	-120.88	78	Commissioned	2004-06-07 20:00:00.0		Operational		USCRN
93245	US	CA	Bodega	6 WSW	University of California - Davis (Bodega Marine Laboratory)	38.32	-123.07	63	Commissioned	2008-07-29 20:00:00.0		Operational		USCRN
94059	US	MT	Wolf Point	34 NE	Fort Peck Indian Res. (Give Out Morgan Site)	48.48	-105.2	2643	Commissioned	2004-04-22 20:00:00.0		Operational	94060	USCRN
94060	US	MT	Wolf Point	29 ENE	Fort Peck Indian Res. (Poplar River Site)	48.3	-105.1	2085	Commissioned	2004-01-25 19:00:00.0		Operational	94059	USCRN
94074	US	CO	Nunn	7 NNE	Ag. Res. Svc. Central Plains Exp. Range (SGS LTER at CSU)	40.8	-104.75	5390	Commissioned	2004-01-11 19:00:00.0		Operational		USCRN
94075	US	CO	Boulder	14 W	Mountain Research Station INSTAAR Univ. of CO (Hills Mill)	40.03	-105.54	9828	Commissioned	2004-01-11 19:00:00.0		Operational		USCRN
94077	US	NE	Harrison	20 SSE	Agate Fossil Beds National Monument (Visitor Center Site)	42.42	-103.73	4406	Commissioned	2004-01-11 19:00:00.0		Operational		USCRN
94078	US	WY	Lander	11 SSE	Nature Conservancy (Red Canyon Ranch)	42.67	-108.66	5773	Commissioned	2004-08-12 20:00:00.0		Operational		USCRN
94079	US	NE	Whitman	5 ENE	Gudmundsen Sandhills Laboratory (Site 1)	42.06	-101.44	3740	Commissioned	2005-03-09 19:00:00.0		Operational		USCRN
94080	US	ND	Medora	7 E	Theodore Roosevelt National Park (Painted Canyon Site)	46.89	-103.37	2771	Commissioned	2005-03-09 19:00:00.0		Operational		USCRN
94081	US	SD	Buffalo	13 ESE	SDSU Antelope Research Station (Calving Pasture Site)	45.51	-103.3	2883	Commissioned	2005-03-09 19:00:00.0		Operational		USCRN
94082	US	CO	Dinosaur	2 E	Dinosaur National Monument (Hdq. Maintenance Site)	40.24	-108.96	6062	Commissioned	2004-09-07 20:00:00.0		Operational		USCRN
94084	US	ND	Northgate	5 ESE	Des Lacs National Wildlife Refuge (HB-4 Site)	48.96	-102.17	1842	Commissioned	2007-01-25 19:00:00.0		Operational		USCRN
94085	US	SD	Pierre	24 S	Fort Pierre National Grassland (Chester West)	44.01	-100.35	2124	Commissioned	2007-01-25 19:00:00.0		Operational		USCRN
94088	US	WY	Sundance	8 NNW	Bear Lodge Ranger Dist, Black Hills NF (Massengale Flats Site)	44.51	-104.43	5792	Commissioned	2007-09-27 20:00:00.0		Operational		USCRN
94092	US	CO	Akron A	4 E	USDA Central Great Plains Research Station	40.15	-103.14	4542	Non-comissioned		2014-05-31 20:00:00.0	Closed		USRCRN
94094	US	CO	Meeker	15 W	Rio Blanco Lake State Wildlife Area	40.08	-108.19	5761	Non-comissioned		2014-05-31 20:00:00.0	Closed		USRCRN
94096	US	UT	Vernal	23 SSE	FWS, Ouray National Wildlife Refuge	40.13	-109.64	4674	Non-comissioned		2014-05-31 20:00:00.0	Closed		USRCRN
94097	US	UT	Grantsville	12 WNW	BLM, Skull Valley (Muskrat Fire Station)	40.63	-112.67	4578	Non-comissioned		2014-05-31 20:00:00.0	Closed		USRCRN
94098	US	UT	Manila	18 ESE	FS, Ashley National Forest (Dutch John)	40.92	-109.38	6536	Non-comissioned		2014-05-31 20:00:00.0	Closed		USRCRN
94644	US	ME	Old Town	2 W	University of Maine  (Rogers Farm Site)	44.92	-68.7	127	Commissioned	2004-01-11 19:00:00.0		Operational		USCRN
94645	US	ME	Limestone	4 NNW	Aroostook National  Wildlife Ref. (Fire Training Area)	46.96	-67.88	737	Commissioned	2004-01-11 19:00:00.0		Operational		USCRN
94995	US	NE	Lincoln	8 ENE	University of Nebraska (Prairie Pines Site)	40.84	-96.56	1189	Commissioned	2004-01-11 19:00:00.0		Operational	94996	USCRN
94996	US	NE	Lincoln	11 SW	Audubon Society (Spring Creek Prairie Site)	40.69	-96.85	1372	Commissioned	2004-01-11 19:00:00.0		Operational	94995	USCRN
96404	US	AK	Tok	70 SE	FWS, Tetlin National Wildlife Refuge (Seaton Roadhouse site)	62.73	-141.2	2000	Commissioned	2012-09-23 20:00:00.0		Operational		USCRN
96406	US	AK	Ruby	44 ESE	FWS, Nowitna National Wildlife Refuge (Lake Site)	64.5	-154.12	259	Non-comissioned			Operational		USCRN
96407	US	AK	Selawik	28 E	FWS, Selawik National Wildlife Refuge (Cabin Site)	66.56	-159	22	Non-comissioned			Operational		USCRN
96408	US	AK	Denali	27 N	NPS, Denali National Park (Wonder Lake Campground Site)	63.45	-150.87	2225	Non-comissioned			Operational		USCRN
NA	US	VA	Sterling	0 N	Sterling HCN	38.97	-77.48	287	Test-site		2008-02-19 19:00:00.0	Closed		USCRN
UN	US	AK	Selawik	28 E	FWS, Selawik National Wildlife Refuge (Cabin Site)	66.56	-159	22	Test-site			Operational		USCRN
UN	US	AK	Denali	27 N	NPS, Denali National Park (Wonder Lake Campground Site)	63.45	-150.87	2225	Test-site			Operational		USCRN
UN	US	AK	Glennallen	64 N	BLM, Paxson Airport	63.02	-145.5	2669	Test-site	2014-07-20 20:00:00.0		Operational		USCRN
UN	US	AK	Ruby	44 ESE	FWS, Nowitna National Wildlife Refuge (Lake Site)	64.5	-154.12	259	Test-site			Operational		USCRN
UN	US	AK	Ivotuk	1 NNE	Arctic Slope Regional Corporation, Ivotuk Airstrip	68.48	-155.75	1909	Test-site			Operational		USCRN
UN	US	AK	Deadhorse	3 S	AK Department of Natural Resources, Haul Road)	70.16	-148.46	30	Test-site			Operational		USCRN
UN	US	TN	Oakridge	0 N	ATDD test site	36	-84.24	UN	Test-site			Non-operational		USCRN
UN	US	AK	Gustavus	2 NE	The Nature Conservancy, Gustavus Forelands Preserve	58.42	-135.69	20	Test-site	2013-07-24 20:00:00.0		Operational		USCRN
UN	US	AK	King Salmon	42 SE	NPS, Katmai National Park (Contact Creek)	58.2	-155.92	661	Test-site	2013-07-24 20:00:00.0		Operational		USCRN
UN	US	AK	Tok	70 SE	FWS, Tetlin National Wildlife Refuge (Seaton Roadhouse site)	62.73	-141.2	2000	Test-site	2012-09-23 20:00:00.0		Operational		USCRN